[{"OBJECT_NAME":"PRSC-EO1","OBJECT_ID":"2025-012A","EPOCH":"2026-03-09T23:07:33.699072","MEAN_MOTION":15.17765596,"ECCENTRICITY":0.00053607,"INCLINATION":97.4297,"RA_OF_ASC_NODE":143.3271,"ARG_OF_PERICENTER":221.9324,"MEAN_ANOMALY":138.15,"EPHEMERIS_TYPE":0,"CLASSIFICATION_TYPE":"U","NORAD_CAT_ID":62725,"ELEMENT_SET_NO":999,"REV_AT_EPOCH":6314,"BSTAR":0.0005131815,"MEAN_MOTION_DOT":0.00010308,"MEAN_MOTION_DDOT":0},{"OBJECT_NAME":"CARBSAR","OBJECT_ID":"2026-004AL","EPOCH":"2026-03-09T21:38:55.142304","MEAN_MOTION":15.18376766,"ECCENTRICITY":0.00049276,"INCLINATION":97.4551,"RA_OF_ASC_NODE":69.3924,"ARG_OF_PERICENTER":346.0062,"MEAN_ANOMALY":14.1035,"EPHEMERIS_TYPE":0,"CLASSIFICATION_TYPE":"U","NORAD_CAT_ID":67397,"ELEMENT_SET_NO":999,"REV_AT_EPOCH":869,"BSTAR":0.00041216985,"MEAN_MOTION_DOT":8.41e-5,"MEAN_MOTION_DDOT":0}]
